[{"OBJECT_NAME":"STARLINK-31882","OBJECT_ID":"2024-097W","EPOCH":"2026-03-09T12:50:52.612224","MEAN_MOTION":15.27575603,"ECCENTRICITY":8.526e-5,"INCLINATION":43.003,"RA_OF_ASC_NODE":268.257,"ARG_OF_PERICENTER":237.0873,"MEAN_ANOMALY":122.9896,"EPHEMERIS_TYPE":0,"CLASSIFICATION_TYPE":"U","NORAD_CAT_ID":59855,"ELEMENT_SET_NO":999,"REV_AT_EPOCH":10197,"BSTAR":-1.635505e-6,"MEAN_MOTION_DOT":-3.07e-6,"MEAN_MOTION_DDOT":0},{"OBJECT_NAME":"CZ-2C R\/B","OBJECT_ID":"2024-203E","EPOCH":"2026-03-09T21:58:29.775360","MEAN_MOTION":15.29569733,"ECCENTRICITY":0.00782655,"INCLINATION":97.3142,"RA_OF_ASC_NODE":134.7565,"ARG_OF_PERICENTER":232.0261,"MEAN_ANOMALY":127.3893,"EPHEMERIS_TYPE":0,"CLASSIFICATION_TYPE":"U","NORAD_CAT_ID":61873,"ELEMENT_SET_NO":999,"REV_AT_EPOCH":7395,"BSTAR":0.00041889655,"MEAN_MOTION_DOT":0.00013106,"MEAN_MOTION_DDOT":0}]
